ALOS (DAICHI)           
1 28931U 06002A   24121.84720399  .00002077  00000+0  39184-3 0  9996
2 28931  98.0334  75.9364 0000945  57.4572 302.6723 14.65522769974419
